BEIDOU-2 G3             
1 36590U 10024A   26175.11493287 -.00000132  00000+0  00000+0 0  9991
2 36590   4.5329  61.4959 0008064 354.0085 337.8289  1.00271077 58834
BADR-5                  
1 36592U 10025A   26176.17455403  .00000164  00000+0  00000+0 0  9993
2 36592   0.0464 154.7146 0004618  32.8628 179.1351  1.00279225 53291
COMS 1                  
1 36744U 10032A   26174.95395442  .00000083  00000+0  00000+0 0  9990
2 36744   4.8229  75.2796 0011845  12.3938 214.3110  0.99165102 51159
ARABSAT-5A              
1 36745U 10032B   26176.17455403  .00000163  00000+0  00000+0 0  9990
2 36745   0.0670  50.0674 0005623  61.1219 255.4510  1.00271006 58729
ECHOSTAR 15             
1 36792U 10034A   26176.11919691  .00000009  00000+0  00000+0 0  9991
2 36792   0.0103 354.3573 0002222  82.3329 120.6656  1.00271956 58402
BEIDOU-2 IGSO-1         
1 36828U 10036A   26175.90431008 -.00000048  00000+0  00000+0 0  9994
2 36828  54.3046 162.8893 0059116 225.3958 317.8898  1.00270002 58171
NILESAT 201             
1 36830U 10037A   26176.16710066 -.00000048  00000+0  00000+0 0  9991
2 36830   0.0398 150.8117 0005064 328.5696 207.0886  1.00271195 58458
RASCOM-QAF 1R           
1 36831U 10037B   26176.16909399  .00000028  00000+0  00000+0 0  9998
2 36831   0.0165  61.3653 0006617  26.8737 248.8382  1.00271678 58383
AEHF-1 (USA 214)        
1 36868U 10039A   26174.94063211  .00000149  00000+0  00000+0 0  9992
2 36868   8.2365  67.9676 0004192  10.6555 202.1697  1.00278704 53729
XM-5                    
1 37185U 10053A   26176.14568823 -.00000013  00000+0  00000+0 0  9995
2 37185   0.0624 272.0773 0002672 281.9798  16.4780  1.00270936 57564
BSAT-3B                 
1 37207U 10056B   26175.00853659 -.00000343  00000+0  00000+0 0  9997
2 37207   0.0777 247.4686 0001742 275.7432 221.8662  1.00271084 52167
BEIDOU-2 G4             
1 37210U 10057A   26175.01789735 -.00000108  00000+0  00000+0 0  9995
2 37210   3.6646  68.9169 0004925 194.9940 174.6911  1.00271133 57363
SKYTERRA 1              
1 37218U 10061A   26176.14846159 -.00000113  00000+0  00000+0 0  9993
2 37218   5.1421  50.8503 0002440  21.2697 153.2975  1.00272923 57273
HYLAS 1                 
1 37237U 10065A   26175.02596269  .00000093  00000+0  00000+0 0  9994
2 37237   5.6614  72.9389 0001052 336.6605 245.7390  1.00273914  6958
INTELSAT 17 (IS-17)     
1 37238U 10065B   26176.01066830  .00000008  00000+0  00000+0 0  9997
2 37238   0.0401 151.5922 0002666 301.2048 250.1876  1.00270688 53327
BEIDOU-2 IGSO-2         
1 37256U 10068A   26174.58485275 -.00000229  00000+0  00000+0 0  9994
2 37256  47.5346 271.7512 0056069 213.1468 105.4665  1.00281206 56851
EUTELSAT KA-SAT 9A      
1 37258U 10069A   26175.17217330  .00000069  00000+0  00000+0 0  9999
2 37258   0.0603  11.3021 0003908 117.6603 214.3515  1.00272938 44076
HISPASAT 30W-5          
1 37264U 10070A   26176.21869984 -.00000206  00000+0  00000+0 0  9996
2 37264   0.0388 145.7287 0005782 324.2499 212.1033  1.00270197 53267
KOREASAT 6              
1 37265U 10070B   26175.20208161 -.00000104  00000+0  00000+0 0  9996
2 37265   0.0068   9.8700 0002634  92.1976  42.9069  1.00272001 56848
BEIDOU-2 IGSO-3         
1 37384U 11013A   26174.55036299 -.00000196  00000+0  00000+0 0  9995
2 37384  62.4163  40.0898 0034966 184.1575 353.0787  1.00266402 55720
INTELSAT 28 (IS-28)     
1 37392U 11016A   26176.20828447 -.00000217  00000+0  00000+0 0  9999
2 37392   1.8272  82.5342 0003975  12.0150 222.0494  1.00270619 53369
YAHSAT 1A               
1 37393U 11016B   26175.22891794  .00000000  00000+0  00000+0 0  9995
2 37393   0.0224  27.0282 0003476  75.6854 304.5676  1.00268420 42472
SBIRS GEO-1 (USA 230)   
1 37481U 11019A   26175.22891794  .00000104  00000+0  00000+0 0  9991
2 37481   4.5509  53.1201 0001925  33.8232 319.6531  1.00272238 55461
TELSTAR 14R             
1 37602U 11021A   26176.08478291 -.00000271  00000+0  00000+0 0  9993
2 37602   0.0391  79.5982 0002432 347.6480 173.5129  1.00272129 55918
GSAT-8                  
1 37605U 11022A   26176.17940737  .00000092  00000+0  00000+0 0  9996
2 37605   2.1520  81.7360 0001691 187.7973 123.4401  1.00272388 53292
ST-2                    
1 37606U 11022B   26175.97209793 -.00000203  00000+0  00000+0 0  9999
2 37606   0.0176 318.8949 0001734 134.5414 257.6275  1.00275501 55350
ZHONGXING-10            
1 37677U 11026A   26175.97157792 -.00000180  00000+0  00000+0 0  9996
2 37677   1.0679  84.1331 0003647   3.7488 260.5103  1.00273081 55071
SES-3                   
1 37748U 11035A   26175.93428808 -.00000094  00000+0  00000+0 0  9994
2 37748   1.3472  83.0168 0002612   4.9457  58.4628  1.00272076 54674
KAZSAT-2                
1 37749U 11035B   26175.04495251 -.00000190  00000+0  00000+0 0  9990
2 37749   0.0099 300.3868 0001625 210.9982 223.5119  1.00270252 53463
BEIDOU-2 IGSO-4         
1 37763U 11038A   26171.66976073  .00000027  00000+0  00000+0 0  9997
2 37763  54.6011 165.6404 0159492 231.4735 206.4270  1.00284412 54682
ASTRA 1N                
1 37775U 11041A   26174.93243215  .00000126  00000+0  00000+0 0  9992
2 37775   0.0769  33.8693 0006561  68.6280 164.4560  1.00271449 44599
BSAT-3C (JCSAT-110R)    
1 37776U 11041B   26175.20114447 -.00000343  00000+0  00000+0 0  9990
2 37776   0.0145   5.6521 0000183 142.3422 306.7250  1.00271472 50542
