OBJECT_NAME,OBJECT_ID,EPOCH,MEAN_MOTION,ECCENTRICITY,INCLINATION,RA_OF_ASC_NODE,ARG_OF_PERICENTER,MEAN_ANOMALY,EPHEMERIS_TYPE,CLASSIFICATION_TYPE,NORAD_CAT_ID,ELEMENT_SET_NO,REV_AT_EPOCH,BSTAR,MEAN_MOTION_DOT,MEAN_MOTION_DDOT
BEIDOU-2 G3,2010-024A,2026-06-24T02:45:30.199968,1.00271077,.0008064,4.5329,61.4959,354.0085,337.8289,0,U,36590,999,5883,0,-.132E-5,0
BADR-5,2010-025A,2026-06-25T04:11:21.468192,1.00279225,.0004618,0.0464,154.7146,32.8628,179.1351,0,U,36592,999,5329,0,.164E-5,0
COMS 1,2010-032A,2026-06-23T22:53:41.661888,0.99165102,.00118457,4.8229,75.2796,12.3938,214.3110,0,U,36744,999,5115,0,.83E-6,0
ARABSAT-5A,2010-032B,2026-06-25T04:11:21.468192,1.00271006,.0005623,0.0670,50.0674,61.1219,255.4510,0,U,36745,999,5872,0,.163E-5,0
ECHOSTAR 15,2010-034A,2026-06-25T02:51:38.613024,1.00271956,.0002222,0.0103,354.3573,82.3329,120.6656,0,U,36792,999,5840,0,.9E-7,0
BEIDOU-2 IGSO-1,2010-036A,2026-06-24T21:42:12.390912,1.00270002,.0059116,54.3046,162.8893,225.3958,317.8898,0,U,36828,999,5817,0,-.48E-6,0
NILESAT 201,2010-037A,2026-06-25T04:00:37.497024,1.00271195,.0005064,0.0398,150.8117,328.5696,207.0886,0,U,36830,999,5845,0,-.48E-6,0
RASCOM-QAF 1R,2010-037B,2026-06-25T04:03:29.720736,1.00271678,.0006617,0.0165,61.3653,26.8737,248.8382,0,U,36831,999,5838,0,.28E-6,0
AEHF-1 (USA 214),2010-039A,2026-06-23T22:34:30.614304,1.00278704,.00041924,8.2365,67.9676,10.6555,202.1697,0,U,36868,999,5372,0,.149E-5,0
XM-5,2010-053A,2026-06-25T03:29:47.463072,1.00270936,.0002672,0.0624,272.0773,281.9798,16.4780,0,U,37185,999,5756,0,-.13E-6,0
BSAT-3B,2010-056B,2026-06-24T00:12:17.561376,1.00271084,.00017422,0.0777,247.4686,275.7432,221.8662,0,U,37207,999,5216,0,-.343E-5,0
BEIDOU-2 G4,2010-057A,2026-06-24T00:25:46.331040,1.00271133,.00049256,3.6646,68.9169,194.9940,174.6911,0,U,37210,999,5736,0,-.108E-5,0
SKYTERRA 1,2010-061A,2026-06-25T03:33:47.081376,1.00272923,.000244,5.1421,50.8503,21.2697,153.2975,0,U,37218,999,5727,0,-.113E-5,0
HYLAS 1,2010-065A,2026-06-24T00:37:23.176416,1.00273914,.00010524,5.6614,72.9389,336.6605,245.7390,0,U,37237,999,695,0,.93E-6,0
INTELSAT 17 (IS-17),2010-065B,2026-06-25T00:15:21.741120,1.00270688,.0002666,0.0401,151.5922,301.2048,250.1876,0,U,37238,999,5332,0,.8E-7,0
BEIDOU-2 IGSO-2,2010-068A,2026-06-23T14:02:11.277600,1.00281206,.00560695,47.5346,271.7512,213.1468,105.4665,0,U,37256,999,5685,0,-.229E-5,0
EUTELSAT KA-SAT 9A,2010-069A,2026-06-24T04:07:55.773120,1.00272938,.00039082,0.0603,11.3021,117.6603,214.3515,0,U,37258,999,4407,0,.69E-6,0
HISPASAT 30W-5,2010-070A,2026-06-25T05:14:55.666176,1.00270197,.0005782,0.0388,145.7287,324.2499,212.1033,0,U,37264,999,5326,0,-.206E-5,0
KOREASAT 6,2010-070B,2026-06-24T04:50:59.851104,1.00272001,.00026344,0.0068,9.8700,92.1976,42.9069,0,U,37265,999,5684,0,-.104E-5,0
BEIDOU-2 IGSO-3,2011-013A,2026-06-23T13:12:31.362336,1.00266402,.00349669,62.4163,40.0898,184.1575,353.0787,0,U,37384,999,5572,0,-.196E-5,0
INTELSAT 28 (IS-28),2011-016A,2026-06-25T04:59:55.778208,1.00270619,.0003975,1.8272,82.5342,12.0150,222.0494,0,U,37392,999,5336,0,-.217E-5,0
YAHSAT 1A,2011-016B,2026-06-24T05:29:38.510016,1.00268420,.00034763,0.0224,27.0282,75.6854,304.5676,0,U,37393,999,4247,0,0,0
SBIRS GEO-1 (USA 230),2011-019A,2026-06-24T05:29:38.510016,1.00272238,.00019253,4.5509,53.1201,33.8232,319.6531,0,U,37481,999,5546,0,.104E-5,0
TELSTAR 14R,2011-021A,2026-06-25T02:02:05.243424,1.00272129,.0002432,0.0391,79.5982,347.6480,173.5129,0,U,37602,999,5591,0,-.271E-5,0
GSAT-8,2011-022A,2026-06-25T04:18:20.796768,1.00272388,.0001691,2.1520,81.7360,187.7973,123.4401,0,U,37605,999,5329,0,.92E-6,0
ST-2,2011-022B,2026-06-24T23:19:49.261152,1.00275501,.0001734,0.0176,318.8949,134.5414,257.6275,0,U,37606,999,5535,0,-.203E-5,0
ZHONGXING-10,2011-026A,2026-06-24T23:19:04.332288,1.00273081,.0003647,1.0679,84.1331,3.7488,260.5103,0,U,37677,999,5507,0,-.18E-5,0
SES-3,2011-035A,2026-06-24T22:25:22.490112,1.00272076,.0002612,1.3472,83.0168,4.9457,58.4628,0,U,37748,999,5467,0,-.94E-6,0
KAZSAT-2,2011-035B,2026-06-24T01:04:43.896864,1.00270252,.00016252,0.0099,300.3868,210.9982,223.5119,0,U,37749,999,5346,0,-.19E-5,0
BEIDOU-2 IGSO-4,2011-038A,2026-06-20T16:04:27.327072,1.00284412,.01594921,54.6011,165.6404,231.4735,206.4270,0,U,37763,999,5468,0,.27E-6,0
ASTRA 1N,2011-041A,2026-06-23T22:22:42.137760,1.00271449,.0006561,0.0769,33.8693,68.6280,164.4560,0,U,37775,999,4459,0,.126E-5,0
BSAT-3C (JCSAT-110R),2011-041B,2026-06-24T04:49:38.882208,1.00271472,.00001831,0.0145,5.6521,142.3422,306.7250,0,U,37776,999,5054,0,-.343E-5,0
